[{"OBJECT_NAME":"SHIJIAN-6 03B (SJ-6 03B)","OBJECT_ID":"2008-053B","EPOCH":"2026-03-09T23:28:00.216192","MEAN_MOTION":15.03879314,"ECCENTRICITY":0.00200774,"INCLINATION":97.8673,"RA_OF_ASC_NODE":87.2117,"ARG_OF_PERICENTER":21.0315,"MEAN_ANOMALY":339.1731,"EPHEMERIS_TYPE":0,"CLASSIFICATION_TYPE":"U","NORAD_CAT_ID":33409,"ELEMENT_SET_NO":999,"REV_AT_EPOCH":94783,"BSTAR":0.00032650966,"MEAN_MOTION_DOT":4.452e-5,"MEAN_MOTION_DDOT":0},{"OBJECT_NAME":"STARLINK-4471","OBJECT_ID":"2022-105S","EPOCH":"2026-03-09T15:48:04.716288","MEAN_MOTION":15.0562915,"ECCENTRICITY":0.00019386,"INCLINATION":97.6033,"RA_OF_ASC_NODE":311.1471,"ARG_OF_PERICENTER":80.1589,"MEAN_ANOMALY":279.9856,"EPHEMERIS_TYPE":0,"CLASSIFICATION_TYPE":"U","NORAD_CAT_ID":53664,"ELEMENT_SET_NO":999,"REV_AT_EPOCH":19329,"BSTAR":-0.00016140051,"MEAN_MOTION_DOT":-2.388e-5,"MEAN_MOTION_DDOT":0}]
